{
  "type": "FeatureCollection",
  "features": [
    {
      "type": "Feature",
      "properties": {
        "norad_id": 30218,
        "name": "FENGYUN 1C DEB",
        "group": "fengyun-1c-debris",
        "lat": -68.80055081322664,
        "lon": 109.42542743920941,
        "alt_km": 777.7500778872973,
        "timestamp": "2025-12-21T16:47:55.012988+00:00",
        "meta_object_name": "FENGYUN 1C DEB",
        "meta_object_id": "1999-025WB",
        "meta_epoch": "2025-12-18T05:14:14.517312",
        "meta_mean_motion": 14.28872853,
        "meta_eccentricity": 0.00708922,
        "meta_inclination": 98.9877,
        "meta_ra_of_asc_node": 81.7565,
        "meta_arg_of_pericenter": 238.3135,
        "meta_mean_anomaly": 150.3932,
        "meta_ephemeris_type": 0,
        "meta_classification_type": "U",
        "meta_norad_cat_id": 30218,
        "meta_element_set_no": 999,
        "meta_rev_at_epoch": 97187,
        "meta_bstar": 0.0020912898,
        "meta_mean_motion_dot": 5.378e-05,
        "meta_mean_motion_ddot": 0,
        "tle_line1": "1 30218U 99025WB  25352.21822358  .00005378  00000+0  20913-2 0  9996",
        "tle_line2": "2 30218  98.9877  81.7565 0070892 238.3135 150.3932 14.28872853971870"
      },
      "geometry": {
        "type": "Point",
        "coordinates": [
          109.42542743920941,
          -68.80055081322664
        ]
      }
    },
    {
      "type": "Feature",
      "properties": {
        "norad_id": 30221,
        "name": "FENGYUN 1C DEB",
        "group": "fengyun-1c-debris",
        "lat": 26.236486049106652,
        "lon": 79.406656099568,
        "alt_km": 637.2888741814795,
        "timestamp": "2025-12-21T16:47:55.012998+00:00",
        "meta_object_name": "FENGYUN 1C DEB",
        "meta_object_id": "1999-025WE",
        "meta_epoch": "2025-12-21T05:03:12.222432",
        "meta_mean_motion": 14.45826257,
        "meta_eccentricity": 0.01450093,
        "meta_inclination": 98.956,
        "meta_ra_of_asc_node": 83.3478,
        "meta_arg_of_pericenter": 16.1911,
        "meta_mean_anomaly": 344.3842,
        "meta_ephemeris_type": 0,
        "meta_classification_type": "U",
        "meta_norad_cat_id": 30221,
        "meta_element_set_no": 999,
        "meta_rev_at_epoch": 99523,
        "meta_bstar": 0.00013737985,
        "meta_mean_motion_dot": 4.99e-06,
        "meta_mean_motion_ddot": 0,
        "tle_line1": "1 30221U 99025WE  25355.21055813  .00000499  00000+0  13738-3 0  9994",
        "tle_line2": "2 30221  98.9560  83.3478 0145009  16.1911 344.3842 14.45826257995238"
      },
      "geometry": {
        "type": "Point",
        "coordinates": [
          79.406656099568,
          26.236486049106652
        ]
      }
    },
    {
      "type": "Feature",
      "properties": {
        "norad_id": 30222,
        "name": "FENGYUN 1C DEB",
        "group": "fengyun-1c-debris",
        "lat": 78.02928382781495,
        "lon": -103.93627395875123,
        "alt_km": 870.318687366098,
        "timestamp": "2025-12-21T16:47:55.013008+00:00",
        "meta_object_name": "FENGYUN 1C DEB",
        "meta_object_id": "1999-025WF",
        "meta_epoch": "2025-12-21T07:51:32.910336",
        "meta_mean_motion": 14.0407621,
        "meta_eccentricity": 0.0037447,
        "meta_inclination": 98.84,
        "meta_ra_of_asc_node": 28.4801,
        "meta_arg_of_pericenter": 13.2677,
        "meta_mean_anomaly": 2.6734,
        "meta_ephemeris_type": 0,
        "meta_classification_type": "U",
        "meta_norad_cat_id": 30222,
        "meta_element_set_no": 999,
        "meta_rev_at_epoch": 96959,
        "meta_bstar": 0.00015356,
        "meta_mean_motion_dot": 2.02e-06,
        "meta_mean_motion_ddot": 0,
        "tle_line1": "1 30222U 99025WF  25355.32746424  .00000202  00000+0  15356-3 0  9992",
        "tle_line2": "2 30222  98.8400  28.4801 0037447  13.2677   2.6734 14.04076210969599"
      },
      "geometry": {
        "type": "Point",
        "coordinates": [
          -103.93627395875123,
          78.02928382781495
        ]
      }
    },
    {
      "type": "Feature",
      "properties": {
        "norad_id": 30224,
        "name": "FENGYUN 1C DEB",
        "group": "fengyun-1c-debris",
        "lat": -2.0601514699081096,
        "lon": -145.72837072682123,
        "alt_km": 991.2990109054272,
        "timestamp": "2025-12-21T16:47:55.013018+00:00",
        "meta_object_name": "FENGYUN 1C DEB",
        "meta_object_id": "1999-025WH",
        "meta_epoch": "2025-12-21T09:03:49.234752",
        "meta_mean_motion": 13.89874183,
        "meta_eccentricity": 0.0110998,
        "meta_inclination": 99.4829,
        "meta_ra_of_asc_node": 34.2878,
        "meta_arg_of_pericenter": 320.0469,
        "meta_mean_anomaly": 51.0691,
        "meta_ephemeris_type": 0,
        "meta_classification_type": "U",
        "meta_norad_cat_id": 30224,
        "meta_element_set_no": 999,
        "meta_rev_at_epoch": 95861,
        "meta_bstar": 0.00032195,
        "meta_mean_motion_dot": 3.69e-06,
        "meta_mean_motion_ddot": 0,
        "tle_line1": "1 30224U 99025WH  25355.37765318  .00000369  00000+0  32195-3 0  9996",
        "tle_line2": "2 30224  99.4829  34.2878 0110998 320.0469  51.0691 13.89874183958611"
      },
      "geometry": {
        "type": "Point",
        "coordinates": [
          -145.72837072682123,
          -2.0601514699081096
        ]
      }
    },
    {
      "type": "Feature",
      "properties": {
        "norad_id": 30225,
        "name": "FENGYUN 1C DEB",
        "group": "fengyun-1c-debris",
        "lat": 81.01331144659582,
        "lon": -52.275254838031024,
        "alt_km": 769.5661468989265,
        "timestamp": "2025-12-21T16:47:55.013029+00:00",
        "meta_object_name": "FENGYUN 1C DEB",
        "meta_object_id": "1999-025WJ",
        "meta_epoch": "2025-12-21T01:22:31.432800",
        "meta_mean_motion": 14.1518949,
        "meta_eccentricity": 0.01003254,
        "meta_inclination": 98.6589,
        "meta_ra_of_asc_node": 21.5866,
        "meta_arg_of_pericenter": 62.3594,
        "meta_mean_anomaly": 352.5535,
        "meta_ephemeris_type": 0,
        "meta_classification_type": "U",
        "meta_norad_cat_id": 30225,
        "meta_element_set_no": 999,
        "meta_rev_at_epoch": 97654,
        "meta_bstar": 0.00013255188,
        "meta_mean_motion_dot": 2.28e-06,
        "meta_mean_motion_ddot": 0,
        "tle_line1": "1 30225U 99025WJ  25355.05730825  .00000228  00000+0  13255-3 0  9997",
        "tle_line2": "2 30225  98.6589  21.5866 0100325  62.3594 352.5535 14.15189490976548"
      },
      "geometry": {
        "type": "Point",
        "coordinates": [
          -52.275254838031024,
          81.01331144659582
        ]
      }
    },
    {
      "type": "Feature",
      "properties": {
        "norad_id": 30229,
        "name": "FENGYUN 1C DEB",
        "group": "fengyun-1c-debris",
        "lat": -10.839810156645832,
        "lon": 57.9186967008177,
        "alt_km": 671.2785652208504,
        "timestamp": "2025-12-21T16:47:55.013039+00:00",
        "meta_object_name": "FENGYUN 1C DEB",
        "meta_object_id": "1999-025WN",
        "meta_epoch": "2025-12-21T03:57:59.073984",
        "meta_mean_motion": 14.60670717,
        "meta_eccentricity": 0.00370108,
        "meta_inclination": 99.0618,
        "meta_ra_of_asc_node": 55.583,
        "meta_arg_of_pericenter": 14.5163,
        "meta_mean_anomaly": 44.8737,
        "meta_ephemeris_type": 0,
        "meta_classification_type": "U",
        "meta_norad_cat_id": 30229,
        "meta_element_set_no": 999,
        "meta_rev_at_epoch": 99049,
        "meta_bstar": 0.0010852358,
        "meta_mean_motion_dot": 5.282e-05,
        "meta_mean_motion_ddot": 0,
        "tle_line1": "1 30229U 99025WN  25355.16526706  .00005282  00000+0  10852-2 0  9998",
        "tle_line2": "2 30229  99.0618  55.5830 0037010  14.5163  44.8737 14.60670717990491"
      },
      "geometry": {
        "type": "Point",
        "coordinates": [
          57.9186967008177,
          -10.839810156645832
        ]
      }
    },
    {
      "type": "Feature",
      "properties": {
        "norad_id": 30231,
        "name": "FENGYUN 1C DEB",
        "group": "fengyun-1c-debris",
        "lat": 75.8985293567869,
        "lon": 2.199263375891927,
        "alt_km": 821.6061380166766,
        "timestamp": "2025-12-21T16:47:55.013048+00:00",
        "meta_object_name": "FENGYUN 1C DEB",
        "meta_object_id": "1999-025WQ",
        "meta_epoch": "2025-12-21T02:56:38.866848",
        "meta_mean_motion": 14.11661566,
        "meta_eccentricity": 0.01280336,
        "meta_inclination": 98.8044,
        "meta_ra_of_asc_node": 39.7267,
        "meta_arg_of_pericenter": 5.4686,
        "meta_mean_anomaly": 20.0411,
        "meta_ephemeris_type": 0,
        "meta_classification_type": "U",
        "meta_norad_cat_id": 30231,
        "meta_element_set_no": 999,
        "meta_rev_at_epoch": 97138,
        "meta_bstar": 0.00043731817,
        "meta_mean_motion_dot": 8.16e-06,
        "meta_mean_motion_ddot": 0,
        "tle_line1": "1 30231U 99025WQ  25355.12267207  .00000816  00000+0  43732-3 0  9997",
        "tle_line2": "2 30231  98.8044  39.7267 0128033   5.4686  20.0411 14.11661566971387"
      },
      "geometry": {
        "type": "Point",
        "coordinates": [
          2.199263375891927,
          75.8985293567869
        ]
      }
    }
  ]
}